[{"OBJECT_NAME":"QIANFAN-52","OBJECT_ID":"2024-232S","EPOCH":"2026-03-03T14:34:01.004448","MEAN_MOTION":13.51000512,"ECCENTRICITY":0.00142838,"INCLINATION":89.0049,"RA_OF_ASC_NODE":32.9434,"ARG_OF_PERICENTER":325.9752,"MEAN_ANOMALY":34.0482,"EPHEMERIS_TYPE":0,"CLASSIFICATION_TYPE":"U","NORAD_CAT_ID":62253,"ELEMENT_SET_NO":999,"REV_AT_EPOCH":7886,"BSTAR":8.9635629e-5,"MEAN_MOTION_DOT":7.0e-7,"MEAN_MOTION_DDOT":0},{"OBJECT_NAME":"QIANFAN-53","OBJECT_ID":"2024-232T","EPOCH":"2026-03-03T14:04:21.170496","MEAN_MOTION":13.51003281,"ECCENTRICITY":0.00132132,"INCLINATION":89.0057,"RA_OF_ASC_NODE":33.0561,"ARG_OF_PERICENTER":327.8393,"MEAN_ANOMALY":32.1951,"EPHEMERIS_TYPE":0,"CLASSIFICATION_TYPE":"U","NORAD_CAT_ID":62254,"ELEMENT_SET_NO":999,"REV_AT_EPOCH":7882,"BSTAR":8.4993636e-5,"MEAN_MOTION_DOT":6.7e-7,"MEAN_MOTION_DDOT":0},{"OBJECT_NAME":"QIANFAN-54","OBJECT_ID":"2024-232U","EPOCH":"2026-03-03T13:16:59.822688","MEAN_MOTION":13.51002659,"ECCENTRICITY":0.00032399,"INCLINATION":89.0048,"RA_OF_ASC_NODE":32.7308,"ARG_OF_PERICENTER":42.3161,"MEAN_ANOMALY":317.8239,"EPHEMERIS_TYPE":0,"CLASSIFICATION_TYPE":"U","NORAD_CAT_ID":62255,"ELEMENT_SET_NO":999,"REV_AT_EPOCH":11032,"BSTAR":9.0945966e-5,"MEAN_MOTION_DOT":7.1e-7,"MEAN_MOTION_DDOT":0},{"OBJECT_NAME":"QIANFAN-55","OBJECT_ID":"2025-016A","EPOCH":"2026-03-03T15:41:08.774592","MEAN_MOTION":13.50996123,"ECCENTRICITY":0.00193787,"INCLINATION":88.9694,"RA_OF_ASC_NODE":94.8398,"ARG_OF_PERICENTER":112.8898,"MEAN_ANOMALY":247.4301,"EPHEMERIS_TYPE":0,"CLASSIFICATION_TYPE":"U","NORAD_CAT_ID":62785,"ELEMENT_SET_NO":999,"REV_AT_EPOCH":5811,"BSTAR":6.6553339e-5,"MEAN_MOTION_DOT":5.5e-7,"MEAN_MOTION_DDOT":0},{"OBJECT_NAME":"QIANFAN-56","OBJECT_ID":"2025-016B","EPOCH":"2026-03-03T14:18:04.457088","MEAN_MOTION":13.50998022,"ECCENTRICITY":0.00180067,"INCLINATION":88.9668,"RA_OF_ASC_NODE":94.6602,"ARG_OF_PERICENTER":115.0081,"MEAN_ANOMALY":245.2943,"EPHEMERIS_TYPE":0,"CLASSIFICATION_TYPE":"U","NORAD_CAT_ID":62786,"ELEMENT_SET_NO":999,"REV_AT_EPOCH":5815,"BSTAR":7.4632737e-5,"MEAN_MOTION_DOT":6.0e-7,"MEAN_MOTION_DDOT":0},{"OBJECT_NAME":"QIANFAN-57","OBJECT_ID":"2025-016C","EPOCH":"2026-03-03T15:05:33.631008","MEAN_MOTION":13.50996919,"ECCENTRICITY":0.00013564,"INCLINATION":88.9699,"RA_OF_ASC_NODE":94.8355,"ARG_OF_PERICENTER":96.7255,"MEAN_ANOMALY":263.405,"EPHEMERIS_TYPE":0,"CLASSIFICATION_TYPE":"U","NORAD_CAT_ID":62787,"ELEMENT_SET_NO":999,"REV_AT_EPOCH":5812,"BSTAR":7.4786283e-5,"MEAN_MOTION_DOT":6.0e-7,"MEAN_MOTION_DDOT":0},{"OBJECT_NAME":"QIANFAN-58","OBJECT_ID":"2025-016D","EPOCH":"2026-03-03T14:23:59.786592","MEAN_MOTION":13.50998485,"ECCENTRICITY":0.00159772,"INCLINATION":88.9668,"RA_OF_ASC_NODE":94.6451,"ARG_OF_PERICENTER":108.0759,"MEAN_ANOMALY":252.2134,"EPHEMERIS_TYPE":0,"CLASSIFICATION_TYPE":"U","NORAD_CAT_ID":62788,"ELEMENT_SET_NO":999,"REV_AT_EPOCH":5816,"BSTAR":7.0237599e-5,"MEAN_MOTION_DOT":5.8e-7,"MEAN_MOTION_DDOT":0},{"OBJECT_NAME":"QIANFAN-59","OBJECT_ID":"2025-016E","EPOCH":"2026-03-03T14:59:45.421728","MEAN_MOTION":13.50994394,"ECCENTRICITY":0.00163138,"INCLINATION":88.9691,"RA_OF_ASC_NODE":94.7355,"ARG_OF_PERICENTER":111.3422,"MEAN_ANOMALY":248.9472,"EPHEMERIS_TYPE":0,"CLASSIFICATION_TYPE":"U","NORAD_CAT_ID":62789,"ELEMENT_SET_NO":999,"REV_AT_EPOCH":5816,"BSTAR":5.361554e-5,"MEAN_MOTION_DOT":4.7e-7,"MEAN_MOTION_DDOT":0},{"OBJECT_NAME":"QIANFAN-60","OBJECT_ID":"2025-016F","EPOCH":"2026-03-03T14:00:31.138272","MEAN_MOTION":13.50992397,"ECCENTRICITY":0.00178937,"INCLINATION":88.9673,"RA_OF_ASC_NODE":94.6957,"ARG_OF_PERICENTER":108.5184,"MEAN_ANOMALY":251.7914,"EPHEMERIS_TYPE":0,"CLASSIFICATION_TYPE":"U","NORAD_CAT_ID":62790,"ELEMENT_SET_NO":999,"REV_AT_EPOCH":5814,"BSTAR":5.740394e-5,"MEAN_MOTION_DOT":4.9e-7,"MEAN_MOTION_DDOT":0},{"OBJECT_NAME":"QIANFAN-61","OBJECT_ID":"2025-016G","EPOCH":"2026-03-03T14:47:55.580928","MEAN_MOTION":13.50993742,"ECCENTRICITY":0.00168196,"INCLINATION":88.974,"RA_OF_ASC_NODE":94.9104,"ARG_OF_PERICENTER":107.7469,"MEAN_ANOMALY":252.5519,"EPHEMERIS_TYPE":0,"CLASSIFICATION_TYPE":"U","NORAD_CAT_ID":62791,"ELEMENT_SET_NO":999,"REV_AT_EPOCH":5816,"BSTAR":6.1013852e-5,"MEAN_MOTION_DOT":5.2e-7,"MEAN_MOTION_DDOT":0},{"OBJECT_NAME":"QIANFAN-62","OBJECT_ID":"2025-016H","EPOCH":"2026-03-03T14:53:45.392928","MEAN_MOTION":13.50996406,"ECCENTRICITY":0.00182012,"INCLINATION":88.9686,"RA_OF_ASC_NODE":94.7346,"ARG_OF_PERICENTER":108.1788,"MEAN_ANOMALY":252.1346,"EPHEMERIS_TYPE":0,"CLASSIFICATION_TYPE":"U","NORAD_CAT_ID":62792,"ELEMENT_SET_NO":999,"REV_AT_EPOCH":5815,"BSTAR":4.8400091e-5,"MEAN_MOTION_DOT":4.4e-7,"MEAN_MOTION_DDOT":0},{"OBJECT_NAME":"QIANFAN-63","OBJECT_ID":"2025-016J","EPOCH":"2026-03-03T13:42:42.073056","MEAN_MOTION":13.50995031,"ECCENTRICITY":0.00182229,"INCLINATION":88.9693,"RA_OF_ASC_NODE":94.6967,"ARG_OF_PERICENTER":113.0941,"MEAN_ANOMALY":247.2133,"EPHEMERIS_TYPE":0,"CLASSIFICATION_TYPE":"U","NORAD_CAT_ID":62793,"ELEMENT_SET_NO":999,"REV_AT_EPOCH":5818,"BSTAR":6.9459378e-5,"MEAN_MOTION_DOT":5.7e-7,"MEAN_MOTION_DDOT":0},{"OBJECT_NAME":"QIANFAN-64","OBJECT_ID":"2025-016K","EPOCH":"2026-03-03T14:42:00.461376","MEAN_MOTION":13.50993014,"ECCENTRICITY":0.0016205,"INCLINATION":88.968,"RA_OF_ASC_NODE":94.6556,"ARG_OF_PERICENTER":106.5459,"MEAN_ANOMALY":253.7474,"EPHEMERIS_TYPE":0,"CLASSIFICATION_TYPE":"U","NORAD_CAT_ID":62794,"ELEMENT_SET_NO":999,"REV_AT_EPOCH":5818,"BSTAR":5.8871131e-5,"MEAN_MOTION_DOT":5.0e-7,"MEAN_MOTION_DDOT":0},{"OBJECT_NAME":"QIANFAN-65","OBJECT_ID":"2025-016L","EPOCH":"2026-03-03T14:35:57.355872","MEAN_MOTION":13.51008624,"ECCENTRICITY":0.00160472,"INCLINATION":88.9677,"RA_OF_ASC_NODE":94.6792,"ARG_OF_PERICENTER":108.034,"MEAN_ANOMALY":252.2561,"EPHEMERIS_TYPE":0,"CLASSIFICATION_TYPE":"U","NORAD_CAT_ID":62795,"ELEMENT_SET_NO":999,"REV_AT_EPOCH":5816,"BSTAR":6.6313243e-5,"MEAN_MOTION_DOT":5.5e-7,"MEAN_MOTION_DDOT":0},{"OBJECT_NAME":"QIANFAN-66","OBJECT_ID":"2025-016M","EPOCH":"2026-03-03T15:17:24.741888","MEAN_MOTION":13.5099674,"ECCENTRICITY":0.00171727,"INCLINATION":88.9696,"RA_OF_ASC_NODE":94.6622,"ARG_OF_PERICENTER":104.2544,"MEAN_ANOMALY":256.0516,"EPHEMERIS_TYPE":0,"CLASSIFICATION_TYPE":"U","NORAD_CAT_ID":62796,"ELEMENT_SET_NO":999,"REV_AT_EPOCH":5821,"BSTAR":6.8157618e-5,"MEAN_MOTION_DOT":5.6e-7,"MEAN_MOTION_DDOT":0},{"OBJECT_NAME":"QIANFAN-67","OBJECT_ID":"2025-016N","EPOCH":"2026-03-03T15:23:15.310752","MEAN_MOTION":13.50995065,"ECCENTRICITY":0.00171023,"INCLINATION":88.9686,"RA_OF_ASC_NODE":94.6794,"ARG_OF_PERICENTER":110.304,"MEAN_ANOMALY":249.9951,"EPHEMERIS_TYPE":0,"CLASSIFICATION_TYPE":"U","NORAD_CAT_ID":62797,"ELEMENT_SET_NO":999,"REV_AT_EPOCH":5818,"BSTAR":4.8419526e-5,"MEAN_MOTION_DOT":4.4e-7,"MEAN_MOTION_DDOT":0},{"OBJECT_NAME":"QIANFAN-68","OBJECT_ID":"2025-016P","EPOCH":"2026-03-03T15:11:37.705056","MEAN_MOTION":13.51005069,"ECCENTRICITY":0.00171628,"INCLINATION":88.969,"RA_OF_ASC_NODE":94.7284,"ARG_OF_PERICENTER":108.753,"MEAN_ANOMALY":251.5485,"EPHEMERIS_TYPE":0,"CLASSIFICATION_TYPE":"U","NORAD_CAT_ID":62798,"ELEMENT_SET_NO":999,"REV_AT_EPOCH":5816,"BSTAR":7.7485023e-5,"MEAN_MOTION_DOT":6.2e-7,"MEAN_MOTION_DDOT":0}]
