QIANFAN-52              
1 62253U 24232S   26062.60695607  .00000070  00000+0  89636-4 0  9998
2 62253  89.0049  32.9434 0014283 325.9752  34.0482 13.51000512 78864
QIANFAN-53              
1 62254U 24232T   26062.58635614  .00000067  00000+0  84994-4 0  9996
2 62254  89.0057  33.0561 0013213 327.8393  32.1951 13.51003281 78823
QIANFAN-54              
1 62255U 24232U   26062.55347017  .00000071  00000+0  90946-4 0  9990
2 62255  89.0048  32.7308 0003239  42.3161 317.8239 13.51002659110320
QIANFAN-55              
1 62785U 25016A   26062.65357378  .00000055  00000+0  66553-4 0  9990
2 62785  88.9694  94.8398 0019378 112.8898 247.4301 13.50996123 58115
QIANFAN-56              
1 62786U 25016B   26062.59588492  .00000060  00000+0  74633-4 0  9991
2 62786  88.9668  94.6602 0018006 115.0081 245.2943 13.50998022 58151
QIANFAN-57              
1 62787U 25016C   26062.62886147  .00000060  00000+0  74786-4 0  9993
2 62787  88.9699  94.8355 0001356  96.7255 263.4050 13.50996919 58122
QIANFAN-58              
1 62788U 25016D   26062.59999753  .00000058  00000+0  70238-4 0  9993
2 62788  88.9668  94.6451 0015977 108.0759 252.2134 13.50998485 58167
QIANFAN-59              
1 62789U 25016E   26062.62483127  .00000047  00000+0  53616-4 0  9990
2 62789  88.9691  94.7355 0016313 111.3422 248.9472 13.50994394 58169
QIANFAN-60              
1 62790U 25016F   26062.58369373  .00000049  00000+0  57404-4 0  9994
2 62790  88.9673  94.6957 0017893 108.5184 251.7914 13.50992397 58147
QIANFAN-61              
1 62791U 25016G   26062.61661552  .00000052  00000+0  61014-4 0  9999
2 62791  88.9740  94.9104 0016819 107.7469 252.5519 13.50993742 58161
QIANFAN-62              
1 62792U 25016H   26062.62066427  .00000044  00000+0  48400-4 0  9996
2 62792  88.9686  94.7346 0018201 108.1788 252.1346 13.50996406 58156
QIANFAN-63              
1 62793U 25016J   26062.57132029  .00000057  00000+0  69459-4 0  9994
2 62793  88.9693  94.6967 0018222 113.0941 247.2133 13.50995031 58187
QIANFAN-64              
1 62794U 25016K   26062.61250534  .00000050  00000+0  58871-4 0  9991
2 62794  88.9680  94.6556 0016205 106.5459 253.7474 13.50993014 58187
QIANFAN-65              
1 62795U 25016L   26062.60830273  .00000055  00000+0  66313-4 0  9990
2 62795  88.9677  94.6792 0016047 108.0340 252.2561 13.51008624 58160
QIANFAN-66              
1 62796U 25016M   26062.63709192  .00000056  00000+0  68158-4 0  9999
2 62796  88.9696  94.6622 0017172 104.2544 256.0516 13.50996740 58210
QIANFAN-67              
1 62797U 25016N   26062.64114943  .00000044  00000+0  48420-4 0  9992
2 62797  88.9686  94.6794 0017102 110.3040 249.9951 13.50995065 58181
QIANFAN-68              
1 62798U 25016P   26062.63307529  .00000062  00000+0  77485-4 0  9999
2 62798  88.9690  94.7284 0017162 108.7530 251.5485 13.51005069 58169
